OBJECT_NAME,OBJECT_ID,EPOCH,MEAN_MOTION,ECCENTRICITY,INCLINATION,RA_OF_ASC_NODE,ARG_OF_PERICENTER,MEAN_ANOMALY,EPHEMERIS_TYPE,CLASSIFICATION_TYPE,NORAD_CAT_ID,ELEMENT_SET_NO,REV_AT_EPOCH,BSTAR,MEAN_MOTION_DOT,MEAN_MOTION_DDOT
CZ-4B R/B,2006-046C,2026-07-06T02:34:30.615456,15.17933029,.00317086,97.5439,231.6563,214.0326,145.8874,0,U,29507,999,7800,.2074734E-3,.4193E-4,0
CZ-2C R/B,2007-010B,2026-07-06T07:00:57.610944,14.20280383,.00580008,98.4113,294.7103,310.1462,49.4643,0,U,31114,999,99655,.56651585E-4,.82E-6,0
COSMO-SKYMED 1,2007-023A,2026-07-06T14:00:57.574080,14.97194090,.000103,97.8850,19.6039,87.2229,272.9110,0,U,31598,999,3269,.16598926E-3,.1859E-4,0
COSMOS 2428,2007-029A,2026-07-06T07:54:19.369440,14.12930220,.00071596,70.9381,314.2852,98.3048,261.8885,0,U,31792,999,98085,.10346413E-3,.145E-5,0
SL-16 R/B,2007-029B,2026-07-06T08:08:20.084640,14.14851423,.00022454,70.9758,282.9692,259.5052,158.3118,0,U,31793,999,98215,-.79637425E-4,-.202E-5,0
KORONAS-FOTON,2009-003A,2026-07-06T21:14:58.554816,15.46154532,.0012557,82.4300,151.7046,87.5241,272.7445,0,U,33504,999,96414,.16064E-3,.7937E-4,0
CZ-2C R/B,2011-030B,2026-07-06T12:04:23.812032,14.81519616,.0051347,97.8663,142.5419,325.1191,151.3776,0,U,37731,999,80768,.15329E-3,.1174E-4,0
H-2A R/B,2012-025E,2026-07-06T16:34:22.206720,14.95818247,.0042117,98.4843,164.4459,283.7589,75.8944,0,U,38341,999,76600,.26025E-3,.2886E-4,0
SHIJIAN-16 (SJ-16),2013-057A,2026-07-06T21:04:32.521152,14.92655437,.0016108,74.9743,319.3868,184.9371,175.1662,0,U,39358,999,68928,.12904E-3,.1304E-4,0
SL-4 R/B,2014-021B,2026-07-06T04:19:48.049536,15.42352336,.00901598,51.6061,117.6981,175.3338,184.8508,0,U,39679,999,67454,.20258967E-3,.9839E-4,0
ALOS-2,2014-029A,2026-07-06T19:41:16.797984,14.79470205,.0001582,97.9223,284.7036,91.8245,268.3148,0,U,39766,999,65448,.24289E-3,.1763E-4,0
YAOGAN-29,2015-069A,2026-07-06T21:04:52.691232,14.83100194,.0001396,98.0019,216.5413,23.2235,336.9041,0,U,41038,999,57354,-.15341E-4,-.179E-5,0
ASTRO-H (HITOMI),2016-012A,2026-07-06T09:29:14.796096,15.10606646,.00095437,31.0000,310.1299,86.2299,273.9431,0,U,41337,999,57019,.1747209E-3,.3056E-4,0
HXMT (HUIYAN),2017-034A,2026-07-06T20:48:30.748320,15.18636573,.0032771,43.0141,73.4464,270.0489,89.6604,0,U,42758,999,50065,.16671E-3,.3318E-4,0
SAOCOM 1A,2018-076A,2026-07-06T20:22:42.532032,14.82163652,.0001519,97.8888,14.3118,79.5987,280.5398,0,U,43641,999,41901,.40184E-4,.268E-5,0
H-2A R/B,2018-084L,2026-07-06T17:53:27.972096,15.45963852,.0021027,98.8544,70.9182,331.7008,28.3092,0,U,43682,999,42414,.34746E-3,.16966E-3,0
SAOCOM 1B,2020-059A,2026-07-06T19:30:28.410912,14.82156548,.0001596,97.8892,13.3717,81.3877,278.7517,0,U,46265,999,31639,.14952E-3,.1138E-4,0
CSS (TIANHE),2021-035A,2026-07-06T11:56:11.415840,15.58009548,.0002947,41.4676,204.5488,273.1350,86.9151,0,U,48274,999,29618,.1548E-3,.11627E-3,0
COSMOS 2550,2021-056A,2026-07-06T15:38:24.922176,15.33769080,.00084299,67.1432,41.0273,272.3999,87.6191,0,U,48865,999,28170,.14569452E-3,.4595E-4,0
CZ-2C R/B,2022-058K,2026-07-06T01:03:00.945216,15.63290384,.00310754,50.1852,65.3044,344.7676,15.2360,0,U,52794,999,22859,.47409114E-3,.45252E-3,0
CZ-2C R/B,2022-132E,2026-07-06T13:24:48.927168,15.74077379,.0011399,97.2898,195.4804,18.3643,341.8031,0,U,54039,999,20899,.42127E-3,.60423E-3,0
GSLV R/B,2022-138AN,2026-07-06T15:11:08.274624,14.97354081,.0024164,87.3813,126.4542,80.1189,280.2769,0,U,54149,999,20172,.26078E-3,.3073E-4,0
XRISM,2023-137A,2026-07-06T12:37:36.395616,15.12631514,.0007794,31.0012,234.3179,159.2962,200.7994,0,U,57800,999,15579,.18768E-3,.3461E-4,0
ACS3,2024-077B,2026-07-06T08:41:43.878624,13.95207183,.01128717,97.1719,101.8934,46.5920,314.4577,0,U,59588,999,11071,.29777553E-1,.42617E-3,0
SPACEMOBILE-003,2024-163A,2026-06-26T19:29:47.816736,15.20822722,.0005991,52.9744,265.1828,141.0621,219.0806,0,U,61045,999,9923,.90246E-4,.1689E-4,0
SPACEMOBILE-005,2024-163B,2026-07-06T07:47:25.125504,15.20800178,.00092973,52.9788,221.3760,169.9979,190.1202,0,U,61046,999,10067,-.17864937E-3,-.4321E-4,0
SPACEMOBILE-001,2024-163C,2026-07-06T07:45:22.019328,15.20821763,.00076311,52.9749,221.0989,167.6942,192.4240,0,U,61047,999,10067,.1042464E-3,.2002E-4,0
SPACEMOBILE-002,2024-163D,2026-07-06T08:57:02.757312,15.20867854,.00068475,52.9751,220.9105,168.3739,191.7414,0,U,61048,999,10068,.37425012E-3,.8058E-4,0
SPACEMOBILE-004,2024-163E,2026-07-05T21:29:19.575744,15.20802887,.00071224,52.9649,222.8932,193.0409,167.0402,0,U,61049,999,10061,.71381053E-3,.15654E-3,0
CZ-8A R/B,2025-231K,2026-07-06T14:48:16.868160,14.30160465,.0116517,50.0052,316.6543,292.4061,66.4545,0,U,66004,999,3772,.63952E-4,.16E-6,0
